[{"OBJECT_NAME":"FORTE","OBJECT_ID":"1997-047A","EPOCH":"2026-03-09T21:41:12.798240","MEAN_MOTION":14.27898785,"ECCENTRICITY":0.00196357,"INCLINATION":69.9517,"RA_OF_ASC_NODE":238.2652,"ARG_OF_PERICENTER":49.0734,"MEAN_ANOMALY":311.2084,"EPHEMERIS_TYPE":0,"CLASSIFICATION_TYPE":"U","NORAD_CAT_ID":24920,"ELEMENT_SET_NO":999,"REV_AT_EPOCH":48451,"BSTAR":0.0001374801,"MEAN_MOTION_DOT":2.83e-6,"MEAN_MOTION_DDOT":0},{"OBJECT_NAME":"CZ-4 DEB","OBJECT_ID":"1990-081BW","EPOCH":"2026-03-09T22:08:05.438688","MEAN_MOTION":14.12453761,"ECCENTRICITY":0.00972923,"INCLINATION":98.8722,"RA_OF_ASC_NODE":56.0019,"ARG_OF_PERICENTER":275.3039,"MEAN_ANOMALY":139.8766,"EPHEMERIS_TYPE":0,"CLASSIFICATION_TYPE":"U","NORAD_CAT_ID":20913,"ELEMENT_SET_NO":999,"REV_AT_EPOCH":81760,"BSTAR":0.00041565878,"MEAN_MOTION_DOT":7.57e-6,"MEAN_MOTION_DDOT":0}]
